{"type": "FeatureCollection", "features": [{"type": "Feature", "properties": {"norad_id": 28054, "name": "DMSP 5D-3 F16 (USA 172)", "group": "weather", "lat": -3.9428726451958993, "lon": 11.115356551658023, "alt_km": 845.0310500138658, "timestamp": "2025-12-18T23:35:48.688572+00:00", "meta": {"OBJECT_NAME": "DMSP 5D-3 F16 (USA 172)", "OBJECT_ID": "2003-048A", "EPOCH": "2025-12-18T13:56:41.769600", "MEAN_MOTION": 14.14426337, "ECCENTRICITY": 0.00063317, "INCLINATION": 99.0041, "RA_OF_ASC_NODE": 10.0839, "ARG_OF_PERICENTER": 302.3406, "MEAN_ANOMALY": 167.0734, "EPHEMERIS_TYPE": 0, "CLASSIFICATION_TYPE": "U", "NORAD_CAT_ID": 28054, "ELEMENT_SET_NO": 999, "REV_AT_EPOCH": 14395, "BSTAR": 7.3458166e-05, "MEAN_MOTION_DOT": 9.5e-07, "MEAN_MOTION_DDOT": 0}, "tle": {"line1": "1 28054U 03048A   25352.58103900  .00000095  00000+0  73458-4 0  9991", "line2": "2 28054  99.0041  10.0839 0006331 302.3406 167.0734 14.14426337143951"}}, "geometry": {"type": "Point", "coordinates": [11.115356551658023, -3.9428726451958993]}}, {"type": "Feature", "properties": {"norad_id": 28912, "name": "METEOSAT-9 (MSG-2)", "group": "weather", "lat": 8.514376522856884, "lon": 127.35674346481096, "alt_km": 35789.77287009461, "timestamp": "2025-12-18T23:35:48.688626+00:00", "meta": {"OBJECT_NAME": "METEOSAT-9 (MSG-2)", "OBJECT_ID": "2005-049B", "EPOCH": "2025-12-17T18:40:44.289696", "MEAN_MOTION": 1.00279199, "ECCENTRICITY": 0.00033756, "INCLINATION": 8.9502, "RA_OF_ASC_NODE": 55.9296, "ARG_OF_PERICENTER": 190.8164, "MEAN_ANOMALY": 165.8697, "EPHEMERIS_TYPE": 0, "CLASSIFICATION_TYPE": "U", "NORAD_CAT_ID": 28912, "ELEMENT_SET_NO": 999, "REV_AT_EPOCH": 517, "BSTAR": 0, "MEAN_MOTION_DOT": 1.4e-06, "MEAN_MOTION_DDOT": 0}, "tle": {"line1": "1 28912U 05049B   25351.77829039  .00000140  00000+0  00000+0 0  9994", "line2": "2 28912   8.9502  55.9296 0003375 190.8164 165.8697  1.00279199  5174"}}, "geometry": {"type": "Point", "coordinates": [127.35674346481096, 8.514376522856884]}}, {"type": "Feature", "properties": {"norad_id": 29522, "name": "DMSP 5D-3 F17 (USA 191)", "group": "weather", "lat": -51.68013637347362, "lon": 9.465155653712827, "alt_km": 850.8575184724787, "timestamp": "2025-12-18T23:35:48.688644+00:00", "meta": {"OBJECT_NAME": "DMSP 5D-3 F17 (USA 191)", "OBJECT_ID": "2006-050A", "EPOCH": "2025-12-18T13:39:43.455744", "MEAN_MOTION": 14.14922055, "ECCENTRICITY": 0.0009625, "INCLINATION": 98.739, "RA_OF_ASC_NODE": 357.837, "ARG_OF_PERICENTER": 207.2412, "MEAN_ANOMALY": 152.8258, "EPHEMERIS_TYPE": 0, "CLASSIFICATION_TYPE": "U", "NORAD_CAT_ID": 29522, "ELEMENT_SET_NO": 999, "REV_AT_EPOCH": 98687, "BSTAR": 9.2433081e-05, "MEAN_MOTION_DOT": 1.35e-06, "MEAN_MOTION_DDOT": 0}, "tle": {"line1": "1 29522U 06050A   25352.56925296  .00000135  00000+0  92433-4 0  9995", "line2": "2 29522  98.7390 357.8370 0009625 207.2412 152.8258 14.14922055986873"}}, "geometry": {"type": "Point", "coordinates": [9.465155653712827, -51.68013637347362]}}, {"type": "Feature", "properties": {"norad_id": 32958, "name": "FENGYUN 3A", "group": "weather", "lat": 54.475633180005275, "lon": 124.71945817723892, "alt_km": 827.1866138549722, "timestamp": "2025-12-18T23:35:48.688658+00:00", "meta": {"OBJECT_NAME": "FENGYUN 3A", "OBJECT_ID": "2008-026A", "EPOCH": "2025-12-18T11:10:12.315648", "MEAN_MOTION": 14.19516415, "ECCENTRICITY": 0.00077072, "INCLINATION": 98.6703, "RA_OF_ASC_NODE": 291.8717, "ARG_OF_PERICENTER": 292.1921, "MEAN_ANOMALY": 67.8437, "EPHEMERIS_TYPE": 0, "CLASSIFICATION_TYPE": "U", "NORAD_CAT_ID": 32958, "ELEMENT_SET_NO": 999, "REV_AT_EPOCH": 90976, "BSTAR": 5.5116894e-05, "MEAN_MOTION_DOT": 7.3e-07, "MEAN_MOTION_DDOT": 0}, "tle": {"line1": "1 32958U 08026A   25352.46542032  .00000073  00000+0  55117-4 0  9998", "line2": "2 32958  98.6703 291.8717 0007707 292.1921  67.8437 14.19516415909767"}}, "geometry": {"type": "Point", "coordinates": [124.71945817723892, 54.475633180005275]}}, {"type": "Feature", "properties": {"norad_id": 35491, "name": "GOES 14", "group": "weather", "lat": -1.0943881716579997, "lon": -31.9140836496442, "alt_km": 35834.427072163366, "timestamp": "2025-12-18T23:35:48.688672+00:00", "meta": {"OBJECT_NAME": "GOES 14", "OBJECT_ID": "2009-033A", "EPOCH": "2025-12-18T14:28:04.936224", "MEAN_MOTION": 1.00096772, "ECCENTRICITY": 5.189e-05, "INCLINATION": 1.2182, "RA_OF_ASC_NODE": 85.3478, "ARG_OF_PERICENTER": 177.5705, "MEAN_ANOMALY": 288.1087, "EPHEMERIS_TYPE": 0, "CLASSIFICATION_TYPE": "U", "NORAD_CAT_ID": 35491, "ELEMENT_SET_NO": 999, "REV_AT_EPOCH": 478, "BSTAR": 0, "MEAN_MOTION_DOT": 1.5e-07, "MEAN_MOTION_DDOT": 0}, "tle": {"line1": "1 35491U 09033A   25352.60283491  .00000015  00000+0  00000+0 0  9991", "line2": "2 35491   1.2182  85.3478 0000518 177.5705 288.1087  1.00096772  4784"}}, "geometry": {"type": "Point", "coordinates": [-31.9140836496442, -1.0943881716579997]}}, {"type": "Feature", "properties": {"norad_id": 35951, "name": "DMSP 5D-3 F18 (USA 210)", "group": "weather", "lat": 8.1310687360118, "lon": 150.6332910561888, "alt_km": 849.8490447443492, "timestamp": "2025-12-18T23:35:48.688684+00:00", "meta": {"OBJECT_NAME": "DMSP 5D-3 F18 (USA 210)", "OBJECT_ID": "2009-057A", "EPOCH": "2025-12-18T14:18:08.748576", "MEAN_MOTION": 14.14773049, "ECCENTRICITY": 0.00119314, "INCLINATION": 98.8839, "RA_OF_ASC_NODE": 328.9675, "ARG_OF_PERICENTER": 47.3731, "MEAN_ANOMALY": 312.8446, "EPHEMERIS_TYPE": 0, "CLASSIFICATION_TYPE": "U", "NORAD_CAT_ID": 35951, "ELEMENT_SET_NO": 999, "REV_AT_EPOCH": 83405, "BSTAR": 0.00014110676, "MEAN_MOTION_DOT": 2.28e-06, "MEAN_MOTION_DDOT": 0}, "tle": {"line1": "1 35951U 09057A   25352.59593459  .00000228  00000+0  14111-3 0  9992", "line2": "2 35951  98.8839 328.9675 0011931  47.3731 312.8446 14.14773049834058"}}, "geometry": {"type": "Point", "coordinates": [150.6332910561888, 8.1310687360118]}}, {"type": "Feature", "properties": {"norad_id": 36411, "name": "EWS-G2 (GOES 15)", "group": "weather", "lat": 0.7071267555278961, "lon": 143.09386689585247, "alt_km": 35797.8480117315, "timestamp": "2025-12-18T23:35:48.688698+00:00", "meta": {"OBJECT_NAME": "EWS-G2 (GOES 15)", "OBJECT_ID": "2010-008A", "EPOCH": "2025-12-18T15:07:24.566880", "MEAN_MOTION": 1.00270715, "ECCENTRICITY": 0.0005473, "INCLINATION": 0.8275, "RA_OF_ASC_NODE": 86.0859, "ARG_OF_PERICENTER": 176.959, "MEAN_ANOMALY": 112.669, "EPHEMERIS_TYPE": 0, "CLASSIFICATION_TYPE": "U", "NORAD_CAT_ID": 36411, "ELEMENT_SET_NO": 999, "REV_AT_EPOCH": 5782, "BSTAR": 0, "MEAN_MOTION_DOT": 6.3e-07, "MEAN_MOTION_DDOT": 0}, "tle": {"line1": "1 36411U 10008A   25352.63014545  .00000063  00000+0  00000+0 0  9996", "line2": "2 36411   0.8275  86.0859 0005473 176.9590 112.6690  1.00270715 57821"}}, "geometry": {"type": "Point", "coordinates": [143.09386689585247, 0.7071267555278961]}}, {"type": "Feature", "properties": {"norad_id": 36744, "name": "COMS 1", "group": "weather", "lat": 3.2198887059992205, "lon": -149.97131184477433, "alt_km": 35784.970745803, "timestamp": "2025-12-18T23:35:48.688711+00:00", "meta": {"OBJECT_NAME": "COMS 1", "OBJECT_ID": "2010-032A", "EPOCH": "2025-12-18T10:10:51.675744", "MEAN_MOTION": 1.00270963, "ECCENTRICITY": 7.13e-05, "INCLINATION": 4.3538, "RA_OF_ASC_NODE": 77.9342, "ARG_OF_PERICENTER": 202.6554, "MEAN_ANOMALY": 87.5811, "EPHEMERIS_TYPE": 0, "CLASSIFICATION_TYPE": "U", "NORAD_CAT_ID": 36744, "ELEMENT_SET_NO": 999, "REV_AT_EPOCH": 4927, "BSTAR": 0, "MEAN_MOTION_DOT": -3.23e-06, "MEAN_MOTION_DDOT": 0}, "tle": {"line1": "1 36744U 10032A   25352.42420921 -.00000323  00000+0  00000+0 0  9998", "line2": "2 36744   4.3538  77.9342 0000713 202.6554  87.5811  1.00270963 49276"}}, "geometry": {"type": "Point", "coordinates": [-149.97131184477433, 3.2198887059992205]}}, {"type": "Feature", "properties": {"norad_id": 37214, "name": "FENGYUN 3B", "group": "weather", "lat": 42.570222863863144, "lon": -138.63360318154227, "alt_km": 853.9086830590823, "timestamp": "2025-12-18T23:35:48.688723+00:00", "meta": {"OBJECT_NAME": "FENGYUN 3B", "OBJECT_ID": "2010-059A", "EPOCH": "2025-12-18T15:11:10.781088", "MEAN_MOTION": 14.14792557, "ECCENTRICITY": 0.00217756, "INCLINATION": 98.9905, "RA_OF_ASC_NODE": 32.6516, "ARG_OF_PERICENTER": 340.9044, "MEAN_ANOMALY": 171.8074, "EPHEMERIS_TYPE": 0, "CLASSIFICATION_TYPE": "U", "NORAD_CAT_ID": 37214, "ELEMENT_SET_NO": 999, "REV_AT_EPOCH": 78189, "BSTAR": 0.00025771213, "MEAN_MOTION_DOT": 4.52e-06, "MEAN_MOTION_DDOT": 0}, "tle": {"line1": "1 37214U 10059A   25352.63276367  .00000452  00000+0  25771-3 0  9994", "line2": "2 37214  98.9905  32.6516 0021775 340.9044 171.8074 14.14792557781894"}}, "geometry": {"type": "Point", "coordinates": [-138.63360318154227, 42.570222863863144]}}, {"type": "Feature", "properties": {"norad_id": 37849, "name": "SUOMI NPP", "group": "weather", "lat": 78.96867759002734, "lon": -122.15867782562097, "alt_km": 818.0552628855885, "timestamp": "2025-12-18T23:35:48.688734+00:00", "meta": {"OBJECT_NAME": "SUOMI NPP", "OBJECT_ID": "2011-061A", "EPOCH": "2025-12-17T23:31:21.474624", "MEAN_MOTION": 14.19515682, "ECCENTRICITY": 0.00023932, "INCLINATION": 98.7779, "RA_OF_ASC_NODE": 289.2746, "ARG_OF_PERICENTER": 111.1248, "MEAN_ANOMALY": 249.0184, "EPHEMERIS_TYPE": 0, "CLASSIFICATION_TYPE": "U", "NORAD_CAT_ID": 37849, "ELEMENT_SET_NO": 999, "REV_AT_EPOCH": 73273, "BSTAR": 4.8615036e-05, "MEAN_MOTION_DOT": 5.8e-07, "MEAN_MOTION_DDOT": 0}, "tle": {"line1": "1 37849U 11061A   25351.98010966  .00000058  00000+0  48615-4 0  9995", "line2": "2 37849  98.7779 289.2746 0002393 111.1248 249.0184 14.19515682732735"}}, "geometry": {"type": "Point", "coordinates": [-122.15867782562097, 78.96867759002734]}}]}